GPS BIII-1              
1 43873U 18109A   26115.40380374  .00000043  00000+0  00000+0 0  9993
2 43873  55.6508  94.2672 0037882 198.8725 333.2065  2.00559068 54011
METEOR-M2 2             
1 44387U 19038A   26115.84075519  .00000024  00000+0  30052-4 0  9990
2 44387  98.9136 102.3607 0001736 128.7449 231.3884 14.24350594353844
GPS BIII-2              
1 44506U 19056A   26115.04060867 -.00000078  00000+0  00000+0 0  9990
2 44506  55.6607 333.2545 0059535 197.4739 334.4796  2.00569009 49002
BEIDOU-3 M24            
1 44542U 19061A   26112.39917424  .00000003  00000+0  00000+0 0  9998
2 44542  54.3942 184.6097 0008007   7.0098 353.0664  1.86229000 44757
BEIDOU-3 M23            
1 44543U 19061B   26115.23544950 -.00000011  00000+0  00000+0 0  9995
2 44543  54.3928 184.4822 0005038 348.2930  25.2802  1.86227167 44813
BEIDOU-3 M22            
1 44793U 19078A   26114.92307155 -.00000048  00000+0  00000+0 0  9999
2 44793  53.9851 301.7007 0007320  45.7814 314.2766  1.86226959 43654
BEIDOU-3 M21            
1 44794U 19078B   26115.60009457 -.00000052  00000+0  00000+0 0  9995
2 44794  53.9580 301.6394 0005177  43.1798 316.8583  1.86227485 43675
ELEKTRO-L 3             
1 44903U 19095A   26115.79603234 -.00000110  00000+0  00000+0 0  9994
2 44903   0.1231  75.5132 0001052 294.6717 206.1344  1.00271220 23185
GPS BIII-3              
1 45854U 20041A   26115.09615082 -.00000095  00000+0  00000+0 0  9992
2 45854  56.6375  31.0034 0062163 205.0676 307.4587  2.00559675 42970
COSMOS 2547             
1 46805U 20075A   26115.85641767 -.00000015  00000+0  00000+0 0  9991
2 46805  64.5969 194.2211 0008353 236.9134 123.0532  2.13100244 42796
GPS BIII-4              
1 46826U 20078A   26112.92753654 -.00000017  00000+0  00000+0 0  9993
2 46826  53.9891 213.0193 0070939 205.6597 155.6852  2.00564823 40404
GSAT0223 (GALILEO 27)   
1 49809U 21116A   26114.32314513 -.00000088  00000+0  00000+0 0  9992
2 49809  57.1776 343.1299 0000234 233.2925 308.9540  1.70475480 27263
GSAT0224 (GALILEO 28)   
1 49810U 21116B   26114.72218082 -.00000089  00000+0  00000+0 0  9993
2 49810  57.1774 343.1180 0000625  14.3979 165.3634  1.70475626 27297
GOES 18                 
1 51850U 22021A   26115.68255980  .00000083  00000+0  00000+0 0  9993
2 51850   0.0124  93.6914 0000386 357.8405 230.8777  1.00271801  6065
COSMOS 2557 (706K)      
1 52984U 22075A   26115.08260141 -.00000027  00000+0  00000+0 0  9999
2 52984  64.3294 316.3562 0010220 281.4601  78.4529  2.13101820 29588
METEOSAT-12 (MTG-I1)    
1 54743U 22170C   26115.85227925 -.00000021  00000+0  00000+0 0  9992
2 54743   0.7233  22.2267 0001131 330.7697 167.3619  1.00269280 12455
METEOR-M2 3             
1 57166U 23091A   26115.54220148 -.00000014  00000+0  12618-4 0  9998
2 57166  98.6132 171.5863 0003315 339.9288  20.1760 14.24042110147020
COSMOS 2569 (703K)      
1 57517U 23114A   26115.22726804  .00000015  00000+0  00000+0 0  9996
2 57517  65.2739  74.4052 0012443 295.3308  64.5212  2.13103736 21138
METEOR-M2 4             
1 59051U 24039A   26115.84887733  .00000011  00000+0  24453-4 0  9994
2 59051  98.6975  75.8166 0006491 330.1006  29.9800 14.22423806111825
GSAT0225 (GALILEO 29)   
1 59598U 24079A   26114.44516725  .00000044  00000+0  00000+0 0  9992
2 59598  55.0858 102.5798 0002649 282.4713  80.4437  1.70474282 12407
GSAT0227 (GALILEO 30)   
1 59600U 24079C   26115.21039429  .00000044  00000+0  00000+0 0  9993
2 59600  55.0821 102.5574 0001229  13.4677 346.5305  1.70474357 12466
GSAT0232 (GALILEO 32)   
1 61182U 24167A   26115.45016990 -.00000037  00000+0  00000+0 0  9996
2 61182  55.2008 222.7596 0004845 214.4336 148.2272  1.70474394  9988
GSAT0226 (GALILEO 31)   
1 61183U 24167B   26115.30083775 -.00000036  00000+0  00000+0 0  9995
2 61183  55.1996 222.7709 0001807 193.6937 168.6615  1.70474349  9954
GSAT0233 (GALILEO 33)   
1 67160U 25302A   26115.42247191  .00000044  00000+0  00000+0 0  9993
2 67160  54.3016 103.6322 0002102 244.4795 289.0042  1.70474372  2224
GSAT0234 (GALILEO 34)   
1 67162U 25302C   26114.56077547  .00000043  00000+0  00000+0 0  9994
2 67162  54.3036 103.6556 0003906 293.1512 251.5938  1.70474332  2266
